NORAD_CAT_ID,OBJECT_NAME,OBJECT_TYPE,EPOCH,MEAN_MOTION,ECCENTRICITY,INCLINATION,RA_OF_ASC_NODE,ARG_OF_PERICENTER,MEAN_ANOMALY,BSTAR,MEAN_MOTION_DOT,MEAN_MOTION_DDOT,TLE_LINE0,TLE_LINE1,TLE_LINE2,SEMIMAJOR_AXIS,PERIOD,APOGEE,PERIGEE,DECAYED
53713.0,STARLINK-4698,PAYLOAD,2022-12-30 05:23:35,15.0882119,0.0002005999999999,53.2199,85.6855,36.612,323.5009,2.9752e-05,1.85e-06,0.0,0 STARLINK-4698,1 53713U 22107P   22364.22471365  .00000185  00000-0  29752-4 0  9991,2 53713  53.2199  85.6855 0002006  36.6120 323.5009 15.08821190 18021,6917.938,95.439,541.191,538.415,0.0
53713.0,STARLINK-4698,PAYLOAD,2022-12-30 13:20:30,15.08834198,0.0002284,53.2189,84.2001,37.9989,322.1164,0.00014496,2.019e-05,0.0,0 STARLINK-4698,1 53713U 22107P   22364.55590462  .00002019  00000-0  14496-3 0  9993,2 53713  53.2189  84.2001 0002284  37.9989 322.1164 15.08834198 18077,6917.898,95.438,541.3430000000002,538.183,0.0
53713.0,STARLINK-4698,PAYLOAD,2022-12-31 05:14:20,15.08846166,0.0002164,53.2197,81.226,40.9838,319.1317,0.00029117,4.35e-05,0.0,0 STARLINK-4698,1 53713U 22107P   22365.21828952  .00004350  00000-0  29117-3 0  9991,2 53713  53.2197  81.2260 0002164  40.9838 319.1317 15.08846166 18179,6917.861999999999,95.437,541.224,538.23,0.0
53713.0,STARLINK-4698,PAYLOAD,2022-12-31 11:35:52,15.08847081,0.0001940999999999,53.2199,80.036,39.5079,320.6055,0.00025342,3.748e-05,0.0,0 STARLINK-4698,1 53713U 22107P   22365.48324873  .00003748  00000-0  25342-3 0  9999,2 53713  53.2199  80.0360 0001941  39.5079 320.6055 15.08847081 18658,6917.859,95.437,541.067,538.381,0.0
53713.0,STARLINK-4698,PAYLOAD,2022-12-31 16:22:02,15.0884312,0.000223,53.2189,79.1456,36.8462,323.2683,0.0002230999999999,3.265e-05,0.0,0 STARLINK-4698,1 53713U 22107P   22365.68197184  .00003265  00000-0  22310-3 0  9990,2 53713  53.2189  79.1456 0002230  36.8462 323.2683 15.08843120 18241,6917.871,95.437,541.279,538.193,0.0
53713.0,STARLINK-4698,PAYLOAD,2023-01-01 05:05:08,15.08835975,0.0002154999999999,53.2181,76.7654,45.0624,315.0543,3.1577e-05,2.14e-06,0.0,0 STARLINK-4698,1 53713U 22107P   23001.21190338  .00000214  00000-0  31577-4 0  9998,2 53713  53.2181  76.7654 0002155  45.0624 315.0543 15.08835975 18326,6917.893,95.438,541.248,538.2669999999998,0.0
53713.0,STARLINK-4698,PAYLOAD,2023-01-01 11:26:41,15.088351500000002,0.0002504,53.2163,75.5749,52.6126,307.5094,-5.7155e-05,-1.198e-05,0.0,0 STARLINK-4698,1 53713U 22107P   23001.47686819 -.00001198  00000-0 -57155-4 0  9994,2 53713  53.2163  75.5749 0002504  52.6126 307.5094 15.08835150 18802,6917.895,95.438,541.492,538.028,0.0
53713.0,STARLINK-4698,PAYLOAD,2023-01-02 12:52:52,15.08834776,0.0002248,53.2208,70.8211,36.6865,323.4281,-0.00016005,-2.834e-05,0.0,0 STARLINK-4698,1 53713U 22107P   23002.53671647 -.00002834  00000-0 -16005-3 0  9991,2 53713  53.2208  70.8211 0002248  36.6865 323.4281 15.08834776 18528,6917.896,95.438,541.316,538.206,0.0
53713.0,STARLINK-4698,PAYLOAD,2023-01-02 14:28:15,15.08839354,0.0002145999999999,53.2192,70.5207,39.3559,320.7589,-0.00014661,-2.621e-05,0.0,0 STARLINK-4698,1 53713U 22107P   23002.60295273 -.00002621  00000-0 -14661-3 0  9996,2 53713  53.2192  70.5207 0002146  39.3559 320.7589 15.08839354 18976,6917.882,95.438,541.232,538.263,0.0
53713.0,STARLINK-4698,PAYLOAD,2023-01-02 20:49:47,15.08834405,0.0002244,53.2193,69.3316,40.5379,319.578,-9.7596e-05,-1.841e-05,0.0,0 STARLINK-4698,1 53713U 22107P   23002.86791545 -.00001841  00000-0 -97596-4 0  9999,2 53713  53.2193  69.3316 0002244  40.5379 319.5780 15.08834405 19014,6917.897,95.438,541.315,538.21,0.0
53713.0,STARLINK-4698,PAYLOAD,2023-01-03 04:46:47,15.08792942,0.0002334,53.2194,67.8444,43.8009,316.3168,-0.00030902,-5.197e-05,0.0,0 STARLINK-4698,1 53713U 22107P   23003.19915531 -.00005197  00000-0 -30902-3 0  9994,2 53713  53.2194  67.8444 0002334  43.8009 316.3168 15.08792942 18626,6918.024,95.441,541.504,538.275,0.0
53713.0,STARLINK-4698,PAYLOAD,2023-01-03 11:08:18,15.08807458,0.0002307,53.2193,66.6552,24.8777,335.2326,-4.1124e-05,-9.42e-06,0.0,0 STARLINK-4698,1 53713U 22107P   23003.46410378 -.00000942  00000-0 -41124-4 0  9995,2 53713  53.2193  66.6552 0002307  24.8777 335.2326 15.08807458 18662,6917.98,95.44,541.441,538.249,0.0
53713.0,STARLINK-4698,PAYLOAD,2023-01-04 10:59:03,15.08848429,0.0002431,53.2195,62.1952,36.4216,323.6941,0.00017445,2.49e-05,0.0,0 STARLINK-4698,1 53713U 22107P   23004.45767810  .00002490  00000-0  17445-3 0  9997,2 53713  53.2195  62.1952 0002431  36.4216 323.6941 15.08848429 18818,6917.855,95.437,541.401,538.038,0.0
53713.0,STARLINK-4698,PAYLOAD,2023-01-04 20:31:21,15.08857577,0.000243,53.2201,60.4116,37.6191,322.497,0.00021854,3.193e-05,0.0,0 STARLINK-4698,1 53713U 22107P   23004.85510820  .00003193  00000-0  21854-3 0  9998,2 53713  53.2201  60.4116 0002430  37.6191 322.4970 15.08857577 18872,6917.8269999999975,95.436,541.373,538.011,0.0
53713.0,STARLINK-4698,PAYLOAD,2023-01-05 12:25:12,15.0883914,0.0002521,53.2202,57.438,31.613000000000003,328.5013,0.00042684,6.511e-05,0.0,0 STARLINK-4698,1 53713U 22107P   23005.51750712  .00006511  00000-0  42684-3 0  9999,2 53713  53.2202  57.4380 0002521  31.6130 328.5013 15.08839140 18972,6917.8830000000025,95.438,541.492,538.004,0.0
53713.0,STARLINK-4698,PAYLOAD,2023-01-06 12:16:01,15.08837258,0.0002404,53.2191,52.9754,30.1459,329.9671,-0.00024098,-4.121e-05,0.0,0 STARLINK-4698,1 53713U 22107P   23006.51112431 -.00004121  00000-0 -24098-3 0  9996,2 53713  53.2191  52.9754 0002404  30.1459 329.9671 15.08837258 19123,6917.889,95.438,541.4169999999998,538.091,0.0
53713.0,STARLINK-4698,PAYLOAD,2023-01-07 02:34:28,15.08843665,0.0002013,53.2189,50.2999,10.4473,349.6561,-0.0002344,-4.017e-05,0.0,0 STARLINK-4698,1 53713U 22107P   23007.10727536 -.00004017  00000-0 -23440-3 0  9994,2 53713  53.2189  50.2999 0002013  10.4473 349.6561 15.08843665 19211,6917.8690000000015,95.437,541.127,538.342,0.0
53713.0,STARLINK-4698,PAYLOAD,2023-01-08 02:25:16,15.08821191,0.0002289,53.2211,45.8408,20.8569,339.2517,2.2939e-05,7.7e-07,0.0,0 STARLINK-4698,1 53713U 22107P   23008.10088244  .00000077  00000-0  22939-4 0  9994,2 53713  53.2211  45.8408 0002289  20.8569 339.2517 15.08821191 19360,6917.938,95.439,541.386,538.219,0.0
53713.0,STARLINK-4698,PAYLOAD,2023-01-08 08:46:49,15.08818066,0.0002383,53.2204,44.6525,354.7832,5.3135,2.143e-06,-2.54e-06,0.0,0 STARLINK-4698,1 53713U 22107P   23008.36584750 -.00000254  00000-0  21430-5 0  9999,2 53713  53.2204  44.6525 0002383 354.7832   5.3135 15.08818066 19843,6917.946999999999,95.439,541.461,538.164,0.0
53713.0,STARLINK-4698,PAYLOAD,2023-01-08 13:32:58,15.08817057,0.0002244,53.2177,43.7568,40.025,320.0907,0.00015824,2.23e-05,0.0,0 STARLINK-4698,1 53713U 22107P   23008.56456440  .00002230  00000-0  15824-3 0  9998,2 53713  53.2177  43.7568 0002244  40.0250 320.0907 15.08817057 19870,6917.951,95.439,541.368,538.263,0.0
53713.0,STARLINK-4698,PAYLOAD,2023-01-09 02:16:02,15.08861075,0.0002491,53.2182,41.3812,30.4053,329.7083,-0.00022173,-3.818e-05,0.0,0 STARLINK-4698,1 53713U 22107P   23009.09447669 -.00003818  00000-0 -22173-3 0  9990,2 53713  53.2182  41.3812 0002491  30.4053 329.7083 15.08861075 19511,6917.816,95.436,541.404,537.9580000000002,0.0
53713.0,STARLINK-4698,PAYLOAD,2023-01-09 08:37:34,15.08872086,0.0002587,53.218,40.1916,33.2909,326.8246,-0.00031167,-5.25e-05,0.0,0 STARLINK-4698,1 53713U 22107P   23009.35943002 -.00005250  00000-0 -31167-3 0  9996,2 53713  53.2180  40.1916 0002587  33.2909 326.8246 15.08872086 19993,6917.781999999998,95.436,541.437,537.8580000000002,0.0
53713.0,STARLINK-4698,PAYLOAD,2023-01-10 08:28:23,15.0883043,0.0002578,53.22,35.7301,31.7337,328.381,-6.486e-06,-3.92e-06,0.0,0 STARLINK-4698,1 53713U 22107P   23010.35304690 -.00000392  00000-0 -64860-5 0  9992,2 53713  53.2200  35.7301 0002578  31.7337 328.3810 15.08830430 19702,6917.91,95.438,541.558,537.991,0.0
53713.0,STARLINK-4698,PAYLOAD,2023-01-10 11:39:09,15.08830699,0.000261,53.2189,35.1368,31.3421,328.7726,6.9198e-06,-1.78e-06,0.0,0 STARLINK-4698,1 53713U 22107P   23010.48552751 -.00000178  00000-0  69198-5 0  9999,2 53713  53.2189  35.1368 0002610  31.3421 328.7726 15.08830699 20161,6917.9090000000015,95.438,541.5790000000002,537.9680000000002,0.0
53713.0,STARLINK-4698,PAYLOAD,2023-01-10 18:00:41,15.08838419,0.0002508,53.2194,33.9481,30.634,329.4799,-1.556e-06,-3.13e-06,0.0,0 STARLINK-4698,1 53713U 22107P   23010.75048333 -.00000313  00000-0 -15560-5 0  9991,2 53713  53.2194  33.9481 0002508  30.6340 329.4799 15.08838419 19767,6917.885,95.438,541.485,538.015,0.0
53713.0,STARLINK-4698,PAYLOAD,2023-01-11 08:19:09,15.08841908,0.0002356,53.2185,31.2709,35.4388,324.676,1.2655e-05,-8.7e-07,0.0,0 STARLINK-4698,1 53713U 22107P   23011.34663876 -.00000087  00000-0  12655-4 0  9990,2 53713  53.2185  31.2709 0002356  35.4388 324.6760 15.08841908 20299,6917.875,95.437,541.369,538.11,0.0
53713.0,STARLINK-4698,PAYLOAD,2023-01-11 17:51:29,15.08834818,0.0002566999999999,53.2185,29.4869,32.6074,327.5076,-7.034e-05,-1.408e-05,0.0,0 STARLINK-4698,1 53713U 22107P   23011.74408747 -.00001408  00000-0 -70340-4 0  9992,2 53713  53.2185  29.4869 0002567  32.6074 327.5076 15.08834818 20351,6917.896,95.438,541.5369999999998,537.985,0.0
53713.0,STARLINK-4698,PAYLOAD,2023-01-11 22:37:39,15.08826501,0.0002347,53.2188,28.5994,41.5312,318.5858,-8.1445e-05,-1.584e-05,0.0,0 STARLINK-4698,1 53713U 22107P   23011.94281469 -.00001584  00000-0 -81445-4 0  9997,2 53713  53.2188  28.5994 0002347  41.5312 318.5858 15.08826501 19944,6917.922,95.438,541.41,538.163,0.0
53713.0,STARLINK-4698,PAYLOAD,2023-01-12 17:42:16,15.08828432,0.0002315,53.2192,25.0279,39.4137,320.7023,-2.3976e-05,-6.7e-06,0.0,0 STARLINK-4698,1 53713U 22107P   23012.73769664 -.00000670  00000-0 -23976-4 0  9993,2 53713  53.2192  25.0279 0002315  39.4137 320.7023 15.08828432 20501,6917.916,95.438,541.382,538.179,0.0
